STARLINK-6141           
1 57112U 23090M   25254.14873802  .00001259  00000+0  10824-3 0  9995
2 57112  43.0035 170.4089 0001206 266.8258  93.2446 15.02540668123403
STARLINK-6142           
1 57113U 23090N   25254.13763525 -.00000634  00000+0 -31881-4 0  9990
2 57113  43.0026 170.3262 0001232 269.0635  91.0066 15.02536809123405
STARLINK-6125           
1 57114U 23090P   25254.20077986 -.00000370  00000+0 -12333-4 0  9996
2 57114  43.0026 169.9389 0001174 269.9965  90.0743 15.02534578123413
STARLINK-6085           
1 57115U 23090Q   25254.17773411  .00007508  00000+0  52906-3 0  9996
2 57115  43.0017 168.9249 0005014 148.5721 211.5423 15.05367102123423
STARLINK-6129           
1 57116U 23090R   25254.07448521 -.00000037  00000+0  12333-4 0  9999
2 57116  42.9990 170.7125 0001217 267.9102  92.1601 15.02537422123394
STARLINK-6148           
1 57117U 23090S   25254.05894711  .00000030  00000+0  17277-4 0  9998
2 57117  43.0018 170.5934 0001021 271.9486  88.1239 15.02538331123388
STARLINK-6151           
1 57118U 23090T   25254.05860141  .00056517  00000+0  13940-2 0  9991
2 57118  42.9935 146.7317 0002536 257.1055 102.9518 15.39732688123673
STARLINK-6150           
1 57119U 23090U   25254.05451093  .00001976  00000+0  16133-3 0  9991
2 57119  43.0040 170.5566 0001203 264.4389  95.6317 15.02536610123396
STARLINK-6147           
1 57120U 23090V   25254.12764438  .00000409  00000+0  45324-4 0  9996
2 57120  43.0028 170.2493 0000957 273.1900  86.8833 15.02537327123404
STARLINK-6152           
1 57121U 23090W   25254.04562405  .00000655  00000+0  63543-4 0  9994
2 57121  43.0026 170.4903 0000860 273.9205  86.1539 15.02541730123207
STARLINK-6149           
1 57122U 23090X   25254.05117987  .00000716  00000+0  68076-4 0  9991
2 57122  43.0041 170.5328 0001108 271.6881  88.3835 15.02536426123397
STARLINK-6154           
1 57123U 23090Y   25254.10877795  .00000356  00000+0  41451-4 0  9996
2 57123  43.0034 170.1068 0001137 263.8566  96.2147 15.02535984123215
STARLINK-6146           
1 57124U 23090Z   25254.04895954  .00002124  00000+0  17220-3 0  9998
2 57124  43.0029 170.5175 0000785 272.5166  87.5587 15.02538858123397
STARLINK-6100           
1 57125U 23090AA  25254.09472110 -.00000013  00000+0  14112-4 0  9993
2 57125  43.0027 157.8426 0001122 267.0450  93.0264 15.02533736123354
STARLINK-6167           
1 57126U 23090AB  25254.04784614  .00000290  00000+0  36512-4 0  9998
2 57126  43.0033 170.5075 0000981 267.7130  92.3600 15.02536966123396
STARLINK-6165           
1 57127U 23090AC  25253.77196627 -.00001314  00000+0 -82280-4 0  9992
2 57127  43.0053 171.8752 0001051 262.8934  97.1789 15.02524293123168
