[{"OBJECT_NAME":"STARLINK-6141","OBJECT_ID":"2023-090M","EPOCH":"2025-09-11T03:34:10.964928","MEAN_MOTION":15.02540668,"ECCENTRICITY":0.00012069,"INCLINATION":43.0035,"RA_OF_ASC_NODE":170.4089,"ARG_OF_PERICENTER":266.8258,"MEAN_ANOMALY":93.2446,"EPHEMERIS_TYPE":0,"CLASSIFICATION_TYPE":"U","NORAD_CAT_ID":57112,"ELEMENT_SET_NO":999,"REV_AT_EPOCH":12340,"BSTAR":0.00010824353,"MEAN_MOTION_DOT":1.259e-5,"MEAN_MOTION_DDOT":0},{"OBJECT_NAME":"STARLINK-6142","OBJECT_ID":"2023-090N","EPOCH":"2025-09-11T03:18:11.685600","MEAN_MOTION":15.02536809,"ECCENTRICITY":0.00012322,"INCLINATION":43.0026,"RA_OF_ASC_NODE":170.3262,"ARG_OF_PERICENTER":269.0635,"MEAN_ANOMALY":91.0066,"EPHEMERIS_TYPE":0,"CLASSIFICATION_TYPE":"U","NORAD_CAT_ID":57113,"ELEMENT_SET_NO":999,"REV_AT_EPOCH":12340,"BSTAR":-3.1881048e-5,"MEAN_MOTION_DOT":-6.34e-6,"MEAN_MOTION_DDOT":0},{"OBJECT_NAME":"STARLINK-6125","OBJECT_ID":"2023-090P","EPOCH":"2025-09-11T04:49:07.379904","MEAN_MOTION":15.02534578,"ECCENTRICITY":0.0001174,"INCLINATION":43.0026,"RA_OF_ASC_NODE":169.9389,"ARG_OF_PERICENTER":269.9965,"MEAN_ANOMALY":90.0743,"EPHEMERIS_TYPE":0,"CLASSIFICATION_TYPE":"U","NORAD_CAT_ID":57114,"ELEMENT_SET_NO":999,"REV_AT_EPOCH":12341,"BSTAR":-1.2333158e-5,"MEAN_MOTION_DOT":-3.7e-6,"MEAN_MOTION_DDOT":0},{"OBJECT_NAME":"STARLINK-6085","OBJECT_ID":"2023-090Q","EPOCH":"2025-09-11T04:15:56.227104","MEAN_MOTION":15.05367102,"ECCENTRICITY":0.0005014,"INCLINATION":43.0017,"RA_OF_ASC_NODE":168.9249,"ARG_OF_PERICENTER":148.5721,"MEAN_ANOMALY":211.5423,"EPHEMERIS_TYPE":0,"CLASSIFICATION_TYPE":"U","NORAD_CAT_ID":57115,"ELEMENT_SET_NO":999,"REV_AT_EPOCH":12342,"BSTAR":0.00052906016,"MEAN_MOTION_DOT":7.508e-5,"MEAN_MOTION_DDOT":0},{"OBJECT_NAME":"STARLINK-6129","OBJECT_ID":"2023-090R","EPOCH":"2025-09-11T01:47:15.522144","MEAN_MOTION":15.02537422,"ECCENTRICITY":0.0001217,"INCLINATION":42.999,"RA_OF_ASC_NODE":170.7125,"ARG_OF_PERICENTER":267.9102,"MEAN_ANOMALY":92.1601,"EPHEMERIS_TYPE":0,"CLASSIFICATION_TYPE":"U","NORAD_CAT_ID":57116,"ELEMENT_SET_NO":999,"REV_AT_EPOCH":12339,"BSTAR":1.2332803e-5,"MEAN_MOTION_DOT":-3.7e-7,"MEAN_MOTION_DDOT":0},{"OBJECT_NAME":"STARLINK-6148","OBJECT_ID":"2023-090S","EPOCH":"2025-09-11T01:24:53.030304","MEAN_MOTION":15.02538331,"ECCENTRICITY":0.00010218,"INCLINATION":43.0018,"RA_OF_ASC_NODE":170.5934,"ARG_OF_PERICENTER":271.9486,"MEAN_ANOMALY":88.1239,"EPHEMERIS_TYPE":0,"CLASSIFICATION_TYPE":"U","NORAD_CAT_ID":57117,"ELEMENT_SET_NO":999,"REV_AT_EPOCH":12338,"BSTAR":1.7276845e-5,"MEAN_MOTION_DOT":3.0e-7,"MEAN_MOTION_DDOT":0},{"OBJECT_NAME":"STARLINK-6151","OBJECT_ID":"2023-090T","EPOCH":"2025-09-11T01:24:23.161824","MEAN_MOTION":15.39732688,"ECCENTRICITY":0.00025366,"INCLINATION":42.9935,"RA_OF_ASC_NODE":146.7317,"ARG_OF_PERICENTER":257.1055,"MEAN_ANOMALY":102.9518,"EPHEMERIS_TYPE":0,"CLASSIFICATION_TYPE":"U","NORAD_CAT_ID":57118,"ELEMENT_SET_NO":999,"REV_AT_EPOCH":12367,"BSTAR":0.0013939531,"MEAN_MOTION_DOT":0.00056517,"MEAN_MOTION_DDOT":0},{"OBJECT_NAME":"STARLINK-6150","OBJECT_ID":"2023-090U","EPOCH":"2025-09-11T01:18:29.744352","MEAN_MOTION":15.0253661,"ECCENTRICITY":0.00012031,"INCLINATION":43.004,"RA_OF_ASC_NODE":170.5566,"ARG_OF_PERICENTER":264.4389,"MEAN_ANOMALY":95.6317,"EPHEMERIS_TYPE":0,"CLASSIFICATION_TYPE":"U","NORAD_CAT_ID":57119,"ELEMENT_SET_NO":999,"REV_AT_EPOCH":12339,"BSTAR":0.00016132812,"MEAN_MOTION_DOT":1.976e-5,"MEAN_MOTION_DDOT":0},{"OBJECT_NAME":"STARLINK-6147","OBJECT_ID":"2023-090V","EPOCH":"2025-09-11T03:03:48.474432","MEAN_MOTION":15.02537327,"ECCENTRICITY":9.577e-5,"INCLINATION":43.0028,"RA_OF_ASC_NODE":170.2493,"ARG_OF_PERICENTER":273.19,"MEAN_ANOMALY":86.8833,"EPHEMERIS_TYPE":0,"CLASSIFICATION_TYPE":"U","NORAD_CAT_ID":57120,"ELEMENT_SET_NO":999,"REV_AT_EPOCH":12340,"BSTAR":4.5324164e-5,"MEAN_MOTION_DOT":4.09e-6,"MEAN_MOTION_DDOT":0},{"OBJECT_NAME":"STARLINK-6152","OBJECT_ID":"2023-090W","EPOCH":"2025-09-11T01:05:41.917920","MEAN_MOTION":15.0254173,"ECCENTRICITY":8.609e-5,"INCLINATION":43.0026,"RA_OF_ASC_NODE":170.4903,"ARG_OF_PERICENTER":273.9205,"MEAN_ANOMALY":86.1539,"EPHEMERIS_TYPE":0,"CLASSIFICATION_TYPE":"U","NORAD_CAT_ID":57121,"ELEMENT_SET_NO":999,"REV_AT_EPOCH":12320,"BSTAR":6.354253e-5,"MEAN_MOTION_DOT":6.55e-6,"MEAN_MOTION_DDOT":0},{"OBJECT_NAME":"STARLINK-6149","OBJECT_ID":"2023-090X","EPOCH":"2025-09-11T01:13:41.940768","MEAN_MOTION":15.02536426,"ECCENTRICITY":0.00011089,"INCLINATION":43.0041,"RA_OF_ASC_NODE":170.5328,"ARG_OF_PERICENTER":271.6881,"MEAN_ANOMALY":88.3835,"EPHEMERIS_TYPE":0,"CLASSIFICATION_TYPE":"U","NORAD_CAT_ID":57122,"ELEMENT_SET_NO":999,"REV_AT_EPOCH":12339,"BSTAR":6.8075859e-5,"MEAN_MOTION_DOT":7.16e-6,"MEAN_MOTION_DDOT":0},{"OBJECT_NAME":"STARLINK-6154","OBJECT_ID":"2023-090Y","EPOCH":"2025-09-11T02:36:38.414880","MEAN_MOTION":15.02535984,"ECCENTRICITY":0.00011371,"INCLINATION":43.0034,"RA_OF_ASC_NODE":170.1068,"ARG_OF_PERICENTER":263.8566,"MEAN_ANOMALY":96.2147,"EPHEMERIS_TYPE":0,"CLASSIFICATION_TYPE":"U","NORAD_CAT_ID":57123,"ELEMENT_SET_NO":999,"REV_AT_EPOCH":12321,"BSTAR":4.1450765e-5,"MEAN_MOTION_DOT":3.56e-6,"MEAN_MOTION_DDOT":0},{"OBJECT_NAME":"STARLINK-6146","OBJECT_ID":"2023-090Z","EPOCH":"2025-09-11T01:10:30.104256","MEAN_MOTION":15.02538858,"ECCENTRICITY":7.85e-5,"INCLINATION":43.0029,"RA_OF_ASC_NODE":170.5175,"ARG_OF_PERICENTER":272.5166,"MEAN_ANOMALY":87.5587,"EPHEMERIS_TYPE":0,"CLASSIFICATION_TYPE":"U","NORAD_CAT_ID":57124,"ELEMENT_SET_NO":999,"REV_AT_EPOCH":12339,"BSTAR":0.00017220487,"MEAN_MOTION_DOT":2.124e-5,"MEAN_MOTION_DDOT":0},{"OBJECT_NAME":"STARLINK-6100","OBJECT_ID":"2023-090AA","EPOCH":"2025-09-11T02:16:23.903040","MEAN_MOTION":15.02533736,"ECCENTRICITY":0.00011228,"INCLINATION":43.0027,"RA_OF_ASC_NODE":157.8426,"ARG_OF_PERICENTER":267.045,"MEAN_ANOMALY":93.0264,"EPHEMERIS_TYPE":0,"CLASSIFICATION_TYPE":"U","NORAD_CAT_ID":57125,"ELEMENT_SET_NO":999,"REV_AT_EPOCH":12335,"BSTAR":1.4111941e-5,"MEAN_MOTION_DOT":-1.3e-7,"MEAN_MOTION_DDOT":0},{"OBJECT_NAME":"STARLINK-6167","OBJECT_ID":"2023-090AB","EPOCH":"2025-09-11T01:08:53.906496","MEAN_MOTION":15.02536966,"ECCENTRICITY":9.814e-5,"INCLINATION":43.0033,"RA_OF_ASC_NODE":170.5075,"ARG_OF_PERICENTER":267.713,"MEAN_ANOMALY":92.36,"EPHEMERIS_TYPE":0,"CLASSIFICATION_TYPE":"U","NORAD_CAT_ID":57126,"ELEMENT_SET_NO":999,"REV_AT_EPOCH":12339,"BSTAR":3.6511693e-5,"MEAN_MOTION_DOT":2.9e-6,"MEAN_MOTION_DDOT":0},{"OBJECT_NAME":"STARLINK-6165","OBJECT_ID":"2023-090AC","EPOCH":"2025-09-10T18:31:37.885728","MEAN_MOTION":15.02524293,"ECCENTRICITY":0.00010516,"INCLINATION":43.0053,"RA_OF_ASC_NODE":171.8752,"ARG_OF_PERICENTER":262.8934,"MEAN_ANOMALY":97.1789,"EPHEMERIS_TYPE":0,"CLASSIFICATION_TYPE":"U","NORAD_CAT_ID":57127,"ELEMENT_SET_NO":999,"REV_AT_EPOCH":12316,"BSTAR":-8.228046e-5,"MEAN_MOTION_DOT":-1.314e-5,"MEAN_MOTION_DDOT":0}]
